{
  "norad_id": 63766,
  "name": "STARLINK-33824",
  "history": [
    {
      "epoch": "2026-03-28T20:25:00.239808Z",
      "apogee_km": 484.11650688394366,
      "perigee_km": 481.898298898489,
      "latitude_deg": 1.103561417112249e-05,
      "longitude_deg": 164.88449122004053,
      "height_km": 482.70456224408383,
      "semi_major_axis_km": 6861.1444028912165,
      "eccentricity": 0.00016165,
      "inclination_deg": 43.0007,
      "raan_deg": 297.4007,
      "arg_perigee_deg": 274.1261,
      "mean_anomaly_deg": 85.9406,
      "mean_motion_rev_day": 15.27593924
    },
    {
      "epoch": "2026-03-28T23:33:18.895680Z",
      "apogee_km": 484.03733299668056,
      "perigee_km": 481.96252518932397,
      "latitude_deg": 4.415286675333995e-06,
      "longitude_deg": 116.9397570563988,
      "height_km": 483.01211943891303,
      "semi_major_axis_km": 6861.136929093002,
      "eccentricity": 0.0001512,
      "inclination_deg": 43.0025,
      "raan_deg": 296.6626,
      "arg_perigee_deg": 256.8968,
      "mean_anomaly_deg": 103.1715,
      "mean_motion_rev_day": 15.2759642
    },
    {
      "epoch": "2026-03-29T23:05:39.418656Z",
      "apogee_km": 484.3096851509854,
      "perigee_km": 481.62836491640337,
      "latitude_deg": 8.158666779826059e-06,
      "longitude_deg": 117.3505353477489,
      "height_km": 482.88090861189255,
      "semi_major_axis_km": 6861.106025033694,
      "eccentricity": 0.0001954,
      "inclination_deg": 43.002,
      "raan_deg": 291.1256,
      "arg_perigee_deg": 264.24,
      "mean_anomaly_deg": 95.8229,
      "mean_motion_rev_day": 15.27606741
    },
    {
      "epoch": "2026-03-29T23:05:39.419520Z",
      "apogee_km": 484.30975376204515,
      "perigee_km": 481.6282963053427,
      "latitude_deg": 8.940815646103551e-06,
      "longitude_deg": 117.35053257194821,
      "height_km": 482.8809154969215,
      "semi_major_axis_km": 6861.106025033694,
      "eccentricity": 0.00019541,
      "inclination_deg": 43.002,
      "raan_deg": 291.1256,
      "arg_perigee_deg": 264.24,
      "mean_anomaly_deg": 95.8229,
      "mean_motion_rev_day": 15.27606741
    },
    {
      "epoch": "2026-03-30T13:13:04.490688Z",
      "apogee_km": 483.75970857746233,
      "perigee_km": 482.282501237476,
      "latitude_deg": 2.4257062502223288e-05,
      "longitude_deg": -98.40845054695868,
      "height_km": 482.8569090418439,
      "semi_major_axis_km": 6861.158104907469,
      "eccentricity": 0.00010765,
      "inclination_deg": 42.9996,
      "raan_deg": 287.8011,
      "arg_perigee_deg": 265.3843,
      "mean_anomaly_deg": 94.6886,
      "mean_motion_rev_day": 15.27589348
    },
    {
      "epoch": "2026-03-30T21:03:50.802912Z",
      "apogee_km": 483.7939898631348,
      "perigee_km": 482.1411497722647,
      "latitude_deg": -2.1283545572141655e-05,
      "longitude_deg": 141.7307017688634,
      "height_km": 482.8279371712359,
      "semi_major_axis_km": 6861.1045698176995,
      "eccentricity": 0.00012045,
      "inclination_deg": 43.0001,
      "raan_deg": 285.9555,
      "arg_perigee_deg": 264.1776,
      "mean_anomaly_deg": 95.8938,
      "mean_motion_rev_day": 15.27607227
    },
    {
      "epoch": "2026-03-31T19:02:02.868000Z",
      "apogee_km": 483.1845078770684,
      "perigee_km": 482.75637477272994,
      "latitude_deg": -3.627584615945334e-06,
      "longitude_deg": 166.1079740708038,
      "height_km": 482.77010504319685,
      "semi_major_axis_km": 6861.107441324899,
      "eccentricity": 3.12e-05,
      "inclination_deg": 42.9979,
      "raan_deg": 280.7853,
      "arg_perigee_deg": 263.5128,
      "mean_anomaly_deg": 96.5688,
      "mean_motion_rev_day": 15.27606268
    },
    {
      "epoch": "2026-04-01T18:34:23.737440Z",
      "apogee_km": 484.19023691636175,
      "perigee_km": 481.7984465306372,
      "latitude_deg": -2.823735254540152e-05,
      "longitude_deg": 166.5139753372185,
      "height_km": 482.3869976974818,
      "semi_major_axis_km": 6861.131341723499,
      "eccentricity": 0.0001743,
      "inclination_deg": 43.001,
      "raan_deg": 275.245,
      "arg_perigee_deg": 288.7504,
      "mean_anomaly_deg": 71.3158,
      "mean_motion_rev_day": 15.27598286
    },
    {
      "epoch": "2026-04-02T19:40:53.371488Z",
      "apogee_km": 484.3768980187224,
      "perigee_km": 481.4676716607637,
      "latitude_deg": 2.4656264961609544e-05,
      "longitude_deg": 142.95139895896074,
      "height_km": 482.35306174051476,
      "semi_major_axis_km": 6861.059284839743,
      "eccentricity": 0.00021201,
      "inclination_deg": 43.0023,
      "raan_deg": 269.337,
      "arg_perigee_deg": 283.7905,
      "mean_anomaly_deg": 76.2711,
      "mean_motion_rev_day": 15.27622351
    },
    {
      "epoch": "2026-04-03T19:13:13.927296Z",
      "apogee_km": 484.1308755949831,
      "perigee_km": 481.8131929632036,
      "latitude_deg": -1.3737699286359135e-05,
      "longitude_deg": 143.35969472572145,
      "height_km": 482.7869692146557,
      "semi_major_axis_km": 6861.109034279093,
      "eccentricity": 0.0001689,
      "inclination_deg": 43.0019,
      "raan_deg": 263.7977,
      "arg_perigee_deg": 268.131,
      "mean_anomaly_deg": 91.9348,
      "mean_motion_rev_day": 15.27605736
    },
    {
      "epoch": "2026-04-04T10:54:48.259872Z",
      "apogee_km": 483.3571429844851,
      "perigee_km": 482.6092808813837,
      "latitude_deg": 1.0046917333793392e-05,
      "longitude_deg": -96.37171603486577,
      "height_km": 482.94897301225336,
      "semi_major_axis_km": 6861.120211932934,
      "eccentricity": 5.45e-05,
      "inclination_deg": 43.0017,
      "raan_deg": 260.1038,
      "arg_perigee_deg": 239.5097,
      "mean_anomaly_deg": 120.5701,
      "mean_motion_rev_day": 15.27602003
    },
    {
      "epoch": "2026-04-05T12:01:19.202016Z",
      "apogee_km": 483.8967333401406,
      "perigee_km": 482.23398955986704,
      "latitude_deg": -7.509276255918691e-06,
      "longitude_deg": -119.94123512919533,
      "height_km": 483.4017501164366,
      "semi_major_axis_km": 6861.202361450004,
      "eccentricity": 0.00012117,
      "inclination_deg": 43.0011,
      "raan_deg": 254.1944,
      "arg_perigee_deg": 227.6484,
      "mean_anomaly_deg": 132.4265,
      "mean_motion_rev_day": 15.27574568
    },
    {
      "epoch": "2026-04-07T11:06:00.305856Z",
      "apogee_km": 484.04278487830015,
      "perigee_km": 481.8859290557248,
      "latitude_deg": -1.0981257042491264e-05,
      "longitude_deg": -119.12813778968929,
      "height_km": 483.7268438600385,
      "semi_major_axis_km": 6861.101356967012,
      "eccentricity": 0.00015718,
      "inclination_deg": 42.9969,
      "raan_deg": 243.1122,
      "arg_perigee_deg": 203.7699,
      "mean_anomaly_deg": 156.308,
      "mean_motion_rev_day": 15.276083
    },
    {
      "epoch": "2026-04-07T17:22:37.829280Z",
      "apogee_km": 484.1661034655617,
      "perigee_km": 481.82096904826903,
      "latitude_deg": 2.315253767816334e-05,
      "longitude_deg": 144.9886593238229,
      "height_km": 483.00057193745124,
      "semi_major_axis_km": 6861.130536256915,
      "eccentricity": 0.0001709,
      "inclination_deg": 43.0036,
      "raan_deg": 241.6431,
      "arg_perigee_deg": 258.7007,
      "mean_anomaly_deg": 101.3653,
      "mean_motion_rev_day": 15.27598555
    },
    {
      "epoch": "2026-04-08T09:04:12.008064Z",
      "apogee_km": 483.81714898123573,
      "perigee_km": 482.18982368068646,
      "latitude_deg": 4.9075487658450934e-05,
      "longitude_deg": -94.74740811680309,
      "height_km": 483.1795026676316,
      "semi_major_axis_km": 6861.140486330961,
      "eccentricity": 0.00011859,
      "inclination_deg": 42.9949,
      "raan_deg": 237.9439,
      "arg_perigee_deg": 240.5329,
      "mean_anomaly_deg": 119.5405,
      "mean_motion_rev_day": 15.27595232
    }
  ]
}